[{"OBJECT_NAME":"STARLINK-3304","OBJECT_ID":"2021-125F","EPOCH":"2026-03-09T18:31:17.345856","MEAN_MOTION":15.08833438,"ECCENTRICITY":0.0001066,"INCLINATION":53.2164,"RA_OF_ASC_NODE":258.7523,"ARG_OF_PERICENTER":95.9728,"MEAN_ANOMALY":264.1386,"EPHEMERIS_TYPE":0,"CLASSIFICATION_TYPE":"U","NORAD_CAT_ID":50161,"ELEMENT_SET_NO":999,"REV_AT_EPOCH":23646,"BSTAR":9.17404e-5,"MEAN_MOTION_DOT":1.172e-5,"MEAN_MOTION_DDOT":0},{"OBJECT_NAME":"JILIN-01 KUANFU 02B 4","OBJECT_ID":"2024-169D","EPOCH":"2026-03-09T23:04:43.463424","MEAN_MOTION":15.0922271,"ECCENTRICITY":0.00080501,"INCLINATION":97.5522,"RA_OF_ASC_NODE":159.355,"ARG_OF_PERICENTER":260.1533,"MEAN_ANOMALY":99.8787,"EPHEMERIS_TYPE":0,"CLASSIFICATION_TYPE":"U","NORAD_CAT_ID":61192,"ELEMENT_SET_NO":999,"REV_AT_EPOCH":8086,"BSTAR":0.00035789888,"MEAN_MOTION_DOT":5.634e-5,"MEAN_MOTION_DDOT":0}]
